IRIDIUM 150             
1 43257U 18030J   25284.56290963 -.00000056  00000+0 -27055-4 0  9999
2 43257  86.4001  34.3846 0001941  89.5926 270.5492 14.34218179394526
IRIDIUM 143             
1 43258U 18030K   25284.54387626  .00000444  00000+0  15151-3 0  9993
2 43258  86.4005  34.4752 0001950  84.0342 276.1076 14.34221816394454
IRIDIUM 161             
1 43478U 18047C   25284.47929347  .00000559  00000+0  16031-3 0  9994
2 43478  86.4561 192.3629 0002318  85.4956 274.6510 14.43280462389268
IRIDIUM 152             
1 43479U 18047D   25284.44683192  .00000572  00000+0  19717-3 0  9996
2 43479  86.4034 192.2371 0002272  84.7755 275.3701 14.34218062386832
IRIDIUM 147             
1 43480U 18047E   25284.73224762  .00000146  00000+0  44904-4 0  9998
2 43480  86.4037 192.1190 0002148  85.9949 274.1492 14.34217507386876
IRIDIUM 110             
1 43481U 18047F   25284.45951899  .00000223  00000+0  72427-4 0  9993
2 43481  86.4045 192.3170 0002691  89.2235 270.9269 14.34216093386824
IRIDIUM 162             
1 43482U 18047G   25284.47298535  .00000516  00000+0  14745-3 0  9990
2 43482  86.4559 192.2596 0002481  84.2146 275.9338 14.43281849389252
IRIDIUM 160             
1 43569U 18061A   25284.40535383  .00000312  00000+0  10417-3 0  9996
2 43569  86.4018 160.7859 0002105  90.9545 269.1892 14.34219403377715
